[{"OBJECT_NAME":"LEMUR-2-FURIAUS","OBJECT_ID":"2017-042R","EPOCH":"2026-03-09T23:04:27.745536","MEAN_MOTION":15.26272951,"ECCENTRICITY":0.00075374,"INCLINATION":97.3753,"RA_OF_ASC_NODE":248.499,"ARG_OF_PERICENTER":55.8686,"MEAN_ANOMALY":304.3266,"EPHEMERIS_TYPE":0,"CLASSIFICATION_TYPE":"U","NORAD_CAT_ID":42840,"ELEMENT_SET_NO":999,"REV_AT_EPOCH":47305,"BSTAR":0.00099966194,"MEAN_MOTION_DOT":0.00025928,"MEAN_MOTION_DDOT":0},{"OBJECT_NAME":"STARLINK-35512","OBJECT_ID":"2025-253M","EPOCH":"2026-03-09T10:29:14.706528","MEAN_MOTION":15.27582162,"ECCENTRICITY":3.671e-5,"INCLINATION":42.9985,"RA_OF_ASC_NODE":214.1234,"ARG_OF_PERICENTER":188.9051,"MEAN_ANOMALY":171.1794,"EPHEMERIS_TYPE":0,"CLASSIFICATION_TYPE":"U","NORAD_CAT_ID":66330,"ELEMENT_SET_NO":999,"REV_AT_EPOCH":2020,"BSTAR":0.0010683445,"MEAN_MOTION_DOT":0.00029255,"MEAN_MOTION_DDOT":0}]
