LEMUR-2-FURIAUS         
1 42840U 17042R   26068.96143223  .00025928  00000+0  99966-3 0  9991
2 42840  97.3753 248.4990 0007537  55.8686 304.3266 15.26272951473053
STARLINK-35512          
1 66330U 25253M   26068.43697577  .00029255  00000+0  10683-2 0  9997
2 66330  42.9985 214.1234 0000367 188.9051 171.1794 15.27582162 20205
